{"type": "FeatureCollection", "features": [ {"type": "Feature", "properties": {"norad_id": 34953, "name": "COSMOS 2251 DEB", "group": "cosmos-2251-debris", "lat": -51.732588948467004, "lon": 20.0425342003823, "alt_km": 671.203377408202, "timestamp": "2025-12-05T14:45:15.693107+00:00", "meta": {"OBJECT_NAME": "COSMOS 2251 DEB", "OBJECT_ID": "1993-036AEG", "EPOCH": "2025-12-04T15:09:48.236256", "MEAN_MOTION": 14.68844667, "ECCENTRICITY": 0.0057678, "INCLINATION": 74.0939, "RA_OF_ASC_NODE": 43.1298, "ARG_OF_PERICENTER": 37.7172, "MEAN_ANOMALY": 112.6918, "EPHEMERIS_TYPE": 0, "CLASSIFICATION_TYPE": "U", "NORAD_CAT_ID": 34953, "ELEMENT_SET_NO": 999, "REV_AT_EPOCH": 88009, "BSTAR": 0.0019887, "MEAN_MOTION_DOT": 0.00011906, "MEAN_MOTION_DDOT": 0}, "tle": {"line1": "1 34953U 93036AEG 25338.63180829  .00011906  00000+0  19887-2 0  9994", "line2": "2 34953  74.0939  43.1298 0057678  37.7172 112.6918 14.68844667880092"}}, "geometry": {"type": "Point", "coordinates": [20.0425342003823, -51.732588948467004]}}, {"type": "Feature", "properties": {"norad_id": 34955, "name": "COSMOS 2251 DEB", "group": "cosmos-2251-debris", "lat": -7.710384686782734, "lon": -101.22399871741639, "alt_km": 518.4934142068096, "timestamp": "2025-12-05T14:45:15.693117+00:00", "meta": {"OBJECT_NAME": "COSMOS 2251 DEB", "OBJECT_ID": "1993-036AEJ", "EPOCH": "2025-12-03T01:58:24.293568", "MEAN_MOTION": 15.00189355, "ECCENTRICITY": 0.00783052, "INCLINATION": 74.0373, "RA_OF_ASC_NODE": 266.1437, "ARG_OF_PERICENTER": 338.174, "MEAN_ANOMALY": 21.6115, "EPHEMERIS_TYPE": 0, "CLASSIFICATION_TYPE": "U", "NORAD_CAT_ID": 34955, "ELEMENT_SET_NO": 999, "REV_AT_EPOCH": 89889, "BSTAR": 0.0013091752, "MEAN_MOTION_DOT": 0.00017463, "MEAN_MOTION_DDOT": 0}, "tle": {"line1": "1 34955U 93036AEJ 25337.08222562  .00017463  00000+0  13092-2 0  9991", "line2": "2 34955  74.0373 266.1437 0078305 338.1740  21.6115 15.00189355898895"}}, "geometry": {"type": "Point", "coordinates": [-101.22399871741639, -7.710384686782734]}}, {"type": "Feature", "properties": {"norad_id": 34962, "name": "COSMOS 2251 DEB", "group": "cosmos-2251-debris", "lat": 72.89200885444079, "lon": -84.83743509089338, "alt_km": 737.0748807450664, "timestamp": "2025-12-05T14:45:15.693127+00:00", "meta": {"OBJECT_NAME": "COSMOS 2251 DEB", "OBJECT_ID": "1993-036AER", "EPOCH": "2025-12-04T15:07:49.652256", "MEAN_MOTION": 14.46479821, "ECCENTRICITY": 0.0018617, "INCLINATION": 74.0306, "RA_OF_ASC_NODE": 208.5113, "ARG_OF_PERICENTER": 322.5014, "MEAN_ANOMALY": 37.4844, "EPHEMERIS_TYPE": 0, "CLASSIFICATION_TYPE": "U", "NORAD_CAT_ID": 34962, "ELEMENT_SET_NO": 999, "REV_AT_EPOCH": 87461, "BSTAR": 0.0008876, "MEAN_MOTION_DOT": 3.175e-05, "MEAN_MOTION_DDOT": 0}, "tle": {"line1": "1 34962U 93036AER 25338.63043579  .00003175  00000+0  88760-3 0  9990", "line2": "2 34962  74.0306 208.5113 0018617 322.5014  37.4844 14.46479821874618"}}, "geometry": {"type": "Point", "coordinates": [-84.83743509089338, 72.89200885444079]}}, {"type": "Feature", "properties": {"norad_id": 34963, "name": "COSMOS 2251 DEB", "group": "cosmos-2251-debris", "lat": -43.63805973820136, "lon": -108.26751942093576, "alt_km": 702.0522192580802, "timestamp": "2025-12-05T14:45:15.693137+00:00", "meta": {"OBJECT_NAME": "COSMOS 2251 DEB", "OBJECT_ID": "1993-036AES", "EPOCH": "2025-12-03T12:04:13.425888", "MEAN_MOTION": 14.50919507, "ECCENTRICITY": 0.00426303, "INCLINATION": 74.172, "RA_OF_ASC_NODE": 59.975, "ARG_OF_PERICENTER": 258.0433, "MEAN_ANOMALY": 101.5948, "EPHEMERIS_TYPE": 0, "CLASSIFICATION_TYPE": "U", "NORAD_CAT_ID": 34963, "ELEMENT_SET_NO": 999, "REV_AT_EPOCH": 86667, "BSTAR": 0.0019734097, "MEAN_MOTION_DOT": 7.865e-05, "MEAN_MOTION_DDOT": 0}, "tle": {"line1": "1 34963U 93036AES 25337.50293317  .00007865  00000+0  19734-2 0  9997", "line2": "2 34963  74.1720  59.9750 0042630 258.0433 101.5948 14.50919507866675"}}, "geometry": {"type": "Point", "coordinates": [-108.26751942093576, -43.63805973820136]}}, {"type": "Feature", "properties": {"norad_id": 34964, "name": "COSMOS 2251 DEB", "group": "cosmos-2251-debris", "lat": 73.07165331089561, "lon": 109.44561774530581, "alt_km": 970.1677805395166, "timestamp": "2025-12-05T14:45:15.693147+00:00", "meta": {"OBJECT_NAME": "COSMOS 2251 DEB", "OBJECT_ID": "1993-036AET", "EPOCH": "2025-12-01T10:51:07.970112", "MEAN_MOTION": 14.00515212, "ECCENTRICITY": 0.02132053, "INCLINATION": 73.9732, "RA_OF_ASC_NODE": 7.4842, "ARG_OF_PERICENTER": 228.1536, "MEAN_ANOMALY": 130.1229, "EPHEMERIS_TYPE": 0, "CLASSIFICATION_TYPE": "U", "NORAD_CAT_ID": 34964, "ELEMENT_SET_NO": 999, "REV_AT_EPOCH": 84320, "BSTAR": 0.0017784594, "MEAN_MOTION_DOT": 3.191e-05, "MEAN_MOTION_DDOT": 0}, "tle": {"line1": "1 34964U 93036AET 25335.45217558  .00003191  00000+0  17785-2 0  9995", "line2": "2 34964  73.9732   7.4842 0213205 228.1536 130.1229 14.00515212843200"}}, "geometry": {"type": "Point", "coordinates": [109.44561774530581, 73.07165331089561]}}, {"type": "Feature", "properties": {"norad_id": 34965, "name": "COSMOS 2251 DEB", "group": "cosmos-2251-debris", "lat": 14.286588904400025, "lon": 145.9825127496371, "alt_km": 735.4394218119332, "timestamp": "2025-12-05T14:45:15.693157+00:00", "meta": {"OBJECT_NAME": "COSMOS 2251 DEB", "OBJECT_ID": "1993-036AEU", "EPOCH": "2025-12-03T17:56:13.193952", "MEAN_MOTION": 14.48667662, "ECCENTRICITY": 0.00265132, "INCLINATION": 74.0501, "RA_OF_ASC_NODE": 145.3009, "ARG_OF_PERICENTER": 273.8401, "MEAN_ANOMALY": 85.9727, "EPHEMERIS_TYPE": 0, "CLASSIFICATION_TYPE": "U", "NORAD_CAT_ID": 34965, "ELEMENT_SET_NO": 999, "REV_AT_EPOCH": 86983, "BSTAR": 0.00048063509, "MEAN_MOTION_DOT": 1.791e-05, "MEAN_MOTION_DDOT": 0}, "tle": {"line1": "1 34965U 93036AEU 25337.74737493  .00001791  00000+0  48064-3 0  9994", "line2": "2 34965  74.0501 145.3009 0026513 273.8401  85.9727 14.48667662869832"}}, "geometry": {"type": "Point", "coordinates": [145.9825127496371, 14.286588904400025]}}, {"type": "Feature", "properties": {"norad_id": 34967, "name": "COSMOS 2251 DEB", "group": "cosmos-2251-debris", "lat": 37.366065555975084, "lon": -80.1852268641612, "alt_km": 715.9648917215927, "timestamp": "2025-12-05T14:45:15.693168+00:00", "meta": {"OBJECT_NAME": "COSMOS 2251 DEB", "OBJECT_ID": "1993-036AEW", "EPOCH": "2025-12-01T02:30:41.683104", "MEAN_MOTION": 14.44168549, "ECCENTRICITY": 0.00374829, "INCLINATION": 73.9933, "RA_OF_ASC_NODE": 275.5612, "ARG_OF_PERICENTER": 64.8384, "MEAN_ANOMALY": 295.6653, "EPHEMERIS_TYPE": 0, "CLASSIFICATION_TYPE": "U", "NORAD_CAT_ID": 34967, "ELEMENT_SET_NO": 999, "REV_AT_EPOCH": 64789, "BSTAR": 0.00079995093, "MEAN_MOTION_DOT": 2.741e-05, "MEAN_MOTION_DDOT": 0}, "tle": {"line1": "1 34967U 93036AEW 25335.10464911  .00002741  00000+0  79995-3 0  9999", "line2": "2 34967  73.9933 275.5612 0037482  64.8384 295.6653 14.44168549647896"}}, "geometry": {"type": "Point", "coordinates": [-80.1852268641612, 37.366065555975084]}}, {"type": "Feature", "properties": {"norad_id": 34968, "name": "COSMOS 2251 DEB", "group": "cosmos-2251-debris", "lat": -44.06317572459076, "lon": 96.73176067282067, "alt_km": 757.3864869325153, "timestamp": "2025-12-05T14:45:15.693202+00:00", "meta": {"OBJECT_NAME": "COSMOS 2251 DEB", "OBJECT_ID": "1993-036AEX", "EPOCH": "2025-12-04T11:23:51.945792", "MEAN_MOTION": 14.59382694, "ECCENTRICITY": 0.0086243, "INCLINATION": 74.039, "RA_OF_ASC_NODE": 262.8231, "ARG_OF_PERICENTER": 25.2675, "MEAN_ANOMALY": 335.267, "EPHEMERIS_TYPE": 0, "CLASSIFICATION_TYPE": "U", "NORAD_CAT_ID": 34968, "ELEMENT_SET_NO": 999, "REV_AT_EPOCH": 88357, "BSTAR": 0.00037097, "MEAN_MOTION_DOT": 1.818e-05, "MEAN_MOTION_DDOT": 0}, "tle": {"line1": "1 34968U 93036AEX 25338.47490678  .00001818  00000+0  37097-3 0  9993", "line2": "2 34968  74.0390 262.8231 0086243  25.2675 335.2670 14.59382694883577"}}, "geometry": {"type": "Point", "coordinates": [96.73176067282067, -44.06317572459076]}}, {"type": "Feature", "properties": {"norad_id": 34969, "name": "COSMOS 2251 DEB", "group": "cosmos-2251-debris", "lat": -61.7752028951375, "lon": 3.888701882011965, "alt_km": 819.5056439886666, "timestamp": "2025-12-05T14:45:15.693213+00:00", "meta": {"OBJECT_NAME": "COSMOS 2251 DEB", "OBJECT_ID": "1993-036AEY", "EPOCH": "2025-11-27T22:39:52.818912", "MEAN_MOTION": 14.32217313, "ECCENTRICITY": 0.0074445, "INCLINATION": 74.0147, "RA_OF_ASC_NODE": 50.1773, "ARG_OF_PERICENTER": 186.867, "MEAN_ANOMALY": 173.1469, "EPHEMERIS_TYPE": 0, "CLASSIFICATION_TYPE": "U", "NORAD_CAT_ID": 34969, "ELEMENT_SET_NO": 999, "REV_AT_EPOCH": 64925, "BSTAR": 0.00041332, "MEAN_MOTION_DOT": 1.123e-05, "MEAN_MOTION_DDOT": 0}, "tle": {"line1": "1 34969U 93036AEY 25331.94436133  .00001123  00000+0  41332-3 0  9991", "line2": "2 34969  74.0147  50.1773 0074445 186.8670 173.1469 14.32217313649253"}}, "geometry": {"type": "Point", "coordinates": [3.888701882011965, -61.7752028951375]}}, {"type": "Feature", "properties": {"norad_id": 34971, "name": "COSMOS 2251 DEB", "group": "cosmos-2251-debris", "lat": 23.83107216335605, "lon": -54.148152587511206, "alt_km": 744.9341366965527, "timestamp": "2025-12-05T14:45:15.693223+00:00", "meta": {"OBJECT_NAME": "COSMOS 2251 DEB", "OBJECT_ID": "1993-036AFA", "EPOCH": "2025-12-04T04:04:33.254112", "MEAN_MOTION": 14.55612791, "ECCENTRICITY": 0.00699688, "INCLINATION": 73.9782, "RA_OF_ASC_NODE": 301.3068, "ARG_OF_PERICENTER": 169.1818, "MEAN_ANOMALY": 207.5998, "EPHEMERIS_TYPE": 0, "CLASSIFICATION_TYPE": "U", "NORAD_CAT_ID": 34971, "ELEMENT_SET_NO": 999, "REV_AT_EPOCH": 66048, "BSTAR": 0.00032049169, "MEAN_MOTION_DOT": 1.415e-05, "MEAN_MOTION_DDOT": 0}, "tle": {"line1": "1 34971U 93036AFA 25338.16982933  .00001415  00000+0  32049-3 0  9998", "line2": "2 34971  73.9782 301.3068 0069968 169.1818 207.5998 14.55612791660480"}}, "geometry": {"type": "Point", "coordinates": [-54.148152587511206, 23.83107216335605]}}]}